{
  "type": "FeatureCollection",
  "features": [
    {
      "type": "Feature",
      "properties": {
        "norad_id": 66968,
        "name": "STARLINK-36152",
        "group": "last-30-days",
        "lat": -24.07774018421812,
        "lon": -62.6915221515519,
        "alt_km": 377.8631808759892,
        "timestamp": "2025-12-25T14:48:23.571775+00:00",
        "meta_object_name": "STARLINK-36152",
        "meta_object_id": "2025-288K",
        "meta_epoch": "2025-12-25T06:00:04.000320",
        "meta_mean_motion": 15.655753,
        "meta_eccentricity": 0.00015113,
        "meta_inclination": 42.9999,
        "meta_ra_of_asc_node": 90.8456,
        "meta_arg_of_pericenter": 267.835,
        "meta_mean_anomaly": 39.5872,
        "meta_ephemeris_type": 0,
        "meta_classification_type": "U",
        "meta_norad_cat_id": 66968,
        "meta_element_set_no": 999,
        "meta_rev_at_epoch": 384,
        "meta_bstar": -0.021735536,
        "meta_mean_motion_dot": -0.01979721,
        "meta_mean_motion_ddot": 0,
        "tle_line1": "1 66968U 25288K   25359.25004630 -.01979721  00000+0 -21736-1 0  9991",
        "tle_line2": "2 66968  42.9999  90.8456 0001511 267.8350  39.5872 15.65575300  3846"
      },
      "geometry": {
        "type": "Point",
        "coordinates": [
          -62.6915221515519,
          -24.07774018421812
        ]
      }
    },
    {
      "type": "Feature",
      "properties": {
        "norad_id": 66969,
        "name": "STARLINK-36149",
        "group": "last-30-days",
        "lat": -29.54909738283598,
        "lon": -53.89994762330064,
        "alt_km": 378.14954600300007,
        "timestamp": "2025-12-25T14:48:23.571784+00:00",
        "meta_object_name": "STARLINK-36149",
        "meta_object_id": "2025-288L",
        "meta_epoch": "2025-12-25T06:00:04.000320",
        "meta_mean_motion": 15.65577305,
        "meta_eccentricity": 0.00015138,
        "meta_inclination": 43.0004,
        "meta_ra_of_asc_node": 90.8215,
        "meta_arg_of_pericenter": 270.7855,
        "meta_mean_anomaly": 46.222,
        "meta_ephemeris_type": 0,
        "meta_classification_type": "U",
        "meta_norad_cat_id": 66969,
        "meta_element_set_no": 999,
        "meta_rev_at_epoch": 384,
        "meta_bstar": -0.021782194,
        "meta_mean_motion_dot": -0.01983602,
        "meta_mean_motion_ddot": 0,
        "tle_line1": "1 66969U 25288L   25359.25004630 -.01983602  00000+0 -21782-1 0  9996",
        "tle_line2": "2 66969  43.0004  90.8215 0001513 270.7855  46.2220 15.65577305  3843"
      },
      "geometry": {
        "type": "Point",
        "coordinates": [
          -53.89994762330064,
          -29.54909738283598
        ]
      }
    },
    {
      "type": "Feature",
      "properties": {
        "norad_id": 66970,
        "name": "STARLINK-35703",
        "group": "last-30-days",
        "lat": -33.47202748629492,
        "lon": -46.192859391286866,
        "alt_km": 378.2597245781935,
        "timestamp": "2025-12-25T14:48:23.571795+00:00",
        "meta_object_name": "STARLINK-35703",
        "meta_object_id": "2025-288M",
        "meta_epoch": "2025-12-25T06:00:04.000320",
        "meta_mean_motion": 15.65582461,
        "meta_eccentricity": 0.00014558,
        "meta_inclination": 43.0001,
        "meta_ra_of_asc_node": 90.802,
        "meta_arg_of_pericenter": 267.6955,
        "meta_mean_anomaly": 56.978,
        "meta_ephemeris_type": 0,
        "meta_classification_type": "U",
        "meta_norad_cat_id": 66970,
        "meta_element_set_no": 999,
        "meta_rev_at_epoch": 384,
        "meta_bstar": -0.021857879,
        "meta_mean_motion_dot": -0.01989982,
        "meta_mean_motion_ddot": 0,
        "tle_line1": "1 66970U 25288M   25359.25004630 -.01989982  00000+0 -21858-1 0  9999",
        "tle_line2": "2 66970  43.0001  90.8020 0001455 267.6955  56.9780 15.65582461  3845"
      },
      "geometry": {
        "type": "Point",
        "coordinates": [
          -46.192859391286866,
          -33.47202748629492
        ]
      }
    },
    {
      "type": "Feature",
      "properties": {
        "norad_id": 66971,
        "name": "STARLINK-35678",
        "group": "last-30-days",
        "lat": -25.217247680563993,
        "lon": -60.995084879139206,
        "alt_km": 377.8843646585592,
        "timestamp": "2025-12-25T14:48:23.571806+00:00",
        "meta_object_name": "STARLINK-35678",
        "meta_object_id": "2025-288N",
        "meta_epoch": "2025-12-25T06:00:04.000320",
        "meta_mean_motion": 15.65580952,
        "meta_eccentricity": 0.00013796,
        "meta_inclination": 43.0001,
        "meta_ra_of_asc_node": 90.8412,
        "meta_arg_of_pericenter": 262.3189,
        "meta_mean_anomaly": 47.0202,
        "meta_ephemeris_type": 0,
        "meta_classification_type": "U",
        "meta_norad_cat_id": 66971,
        "meta_element_set_no": 999,
        "meta_rev_at_epoch": 384,
        "meta_bstar": -0.021839921,
        "meta_mean_motion_dot": -0.01988379,
        "meta_mean_motion_ddot": 0,
        "tle_line1": "1 66971U 25288N   25359.25004630 -.01988379  00000+0 -21840-1 0  9990",
        "tle_line2": "2 66971  43.0001  90.8412 0001379 262.3189  47.0202 15.65580952  3840"
      },
      "geometry": {
        "type": "Point",
        "coordinates": [
          -60.995084879139206,
          -25.217247680563993
        ]
      }
    },
    {
      "type": "Feature",
      "properties": {
        "norad_id": 66972,
        "name": "STARLINK-34846",
        "group": "last-30-days",
        "lat": -26.332046297371623,
        "lon": -59.27410157931582,
        "alt_km": 377.9331956486194,
        "timestamp": "2025-12-25T14:48:23.571815+00:00",
        "meta_object_name": "STARLINK-34846",
        "meta_object_id": "2025-288P",
        "meta_epoch": "2025-12-25T06:00:04.000320",
        "meta_mean_motion": 15.65583244,
        "meta_eccentricity": 0.00015213,
        "meta_inclination": 42.9999,
        "meta_ra_of_asc_node": 90.8367,
        "meta_arg_of_pericenter": 266.1683,
        "meta_mean_anomaly": 45.0845,
        "meta_ephemeris_type": 0,
        "meta_classification_type": "U",
        "meta_norad_cat_id": 66972,
        "meta_element_set_no": 999,
        "meta_rev_at_epoch": 384,
        "meta_bstar": -0.021854802,
        "meta_mean_motion_dot": -0.01989842,
        "meta_mean_motion_ddot": 0,
        "tle_line1": "1 66972U 25288P   25359.25004630 -.01989842  00000+0 -21855-1 0  9993",
        "tle_line2": "2 66972  42.9999  90.8367 0001521 266.1683  45.0845 15.65583244  3842"
      },
      "geometry": {
        "type": "Point",
        "coordinates": [
          -59.27410157931582,
          -26.332046297371623
        ]
      }
    },
    {
      "type": "Feature",
      "properties": {
        "norad_id": 66973,
        "name": "STARLINK-35778",
        "group": "last-30-days",
        "lat": -27.42823440717281,
        "lon": -57.51656716541925,
        "alt_km": 378.01205146748634,
        "timestamp": "2025-12-25T14:48:23.571824+00:00",
        "meta_object_name": "STARLINK-35778",
        "meta_object_id": "2025-288Q",
        "meta_epoch": "2025-12-25T06:00:04.000320",
        "meta_mean_motion": 15.65581931,
        "meta_eccentricity": 0.00014709,
        "meta_inclination": 43.0001,
        "meta_ra_of_asc_node": 90.832,
        "meta_arg_of_pericenter": 266.4744,
        "meta_mean_anomaly": 46.6971,
        "meta_ephemeris_type": 0,
        "meta_classification_type": "U",
        "meta_norad_cat_id": 66973,
        "meta_element_set_no": 999,
        "meta_rev_at_epoch": 384,
        "meta_bstar": -0.021848367,
        "meta_mean_motion_dot": -0.01989195,
        "meta_mean_motion_ddot": 0,
        "tle_line1": "1 66973U 25288Q   25359.25004630 -.01989195  00000+0 -21848-1 0  9997",
        "tle_line2": "2 66973  43.0001  90.8320 0001470 266.4744  46.6971 15.65581931  3840"
      },
      "geometry": {
        "type": "Point",
        "coordinates": [
          -57.51656716541925,
          -27.42823440717281
        ]
      }
    },
    {
      "type": "Feature",
      "properties": {
        "norad_id": 66974,
        "name": "STARLINK-35780",
        "group": "last-30-days",
        "lat": -28.501490509688654,
        "lon": -55.72440834678315,
        "alt_km": 378.0508388684493,
        "timestamp": "2025-12-25T14:48:23.571851+00:00",
        "meta_object_name": "STARLINK-35780",
        "meta_object_id": "2025-288R",
        "meta_epoch": "2025-12-25T06:00:04.000320",
        "meta_mean_motion": 15.65582805,
        "meta_eccentricity": 0.00014682,
        "meta_inclination": 43.0002,
        "meta_ra_of_asc_node": 90.8274,
        "meta_arg_of_pericenter": 266.0822,
        "meta_mean_anomaly": 49.0059,
        "meta_ephemeris_type": 0,
        "meta_classification_type": "U",
        "meta_norad_cat_id": 66974,
        "meta_element_set_no": 999,
        "meta_rev_at_epoch": 384,
        "meta_bstar": -0.021859623,
        "meta_mean_motion_dot": -0.01990155,
        "meta_mean_motion_ddot": 0,
        "tle_line1": "1 66974U 25288R   25359.25004630 -.01990155  00000+0 -21860-1 0  9990",
        "tle_line2": "2 66974  43.0002  90.8274 0001468 266.0822  49.0059 15.65582805  3845"
      },
      "geometry": {
        "type": "Point",
        "coordinates": [
          -55.72440834678315,
          -28.501490509688654
        ]
      }
    }
  ]
}